IRIDIUM 119             
1 42959U 17061E   26002.14739217  .00000031  00000+0  41314-5 0  9999
2 42959  86.3968  94.6869 0001914 104.0983 256.0426 14.34217476431016
IRIDIUM 107             
1 42960U 17061F   26002.16642068  .00000055  00000+0  12454-4 0  9998
2 42960  86.3965  94.6992 0002479 104.0443 256.1029 14.34217884431024
IRIDIUM 132             
1 42961U 17061G   26002.17275979  .00000093  00000+0  26156-4 0  9999
2 42961  86.3970  94.6775 0002184 101.1391 259.0050 14.34220087431028
IRIDIUM 136             
1 42962U 17061H   26002.13470767 -.00000015  00000+0 -12387-4 0  9995
2 42962  86.3966  94.6988 0002017 101.2699 258.8724 14.34217276431039
IRIDIUM 139             
1 42963U 17061J   26002.14104435  .00000504  00000+0  17300-3 0  9993
2 42963  86.3962  94.7548 0001993  96.4478 263.6944 14.34217991431044
IRIDIUM 125             
1 42964U 17061K   26002.12836294  .00000244  00000+0  79912-4 0  9996
2 42964  86.3970  94.8189 0002329 110.7152 249.4293 14.34219044431050
IRIDIUM 135             
1 43070U 17083A   26002.10248983  .00000085  00000+0  23434-4 0  9990
2 43070  86.3952  31.4280 0002171  91.5693 268.5751 14.34218222420347
IRIDIUM 138             
1 43071U 17083B   26002.12786024  .00000054  00000+0  12358-4 0  9995
2 43071  86.3964  31.0872 0001948 101.3316 258.8099 14.34217790420332
